SL-16 R/B               
1 22566U 93016B   26003.26192004 -.00000006  00000+0  21115-4 0  9995
2 22566  71.0090 352.5996 0008093  54.1127 306.0746 14.15296400692914
COSMOS 2242             
1 22626U 93024A   26003.30485076  .00004664  00000+0  41028-3 0  9997
2 22626  82.5199 329.2308 0016849 159.2901 200.9008 14.96220299770610
SL-16 R/B               
1 22803U 93059B   26003.11844214 -.00000077  00000+0 -14151-4 0  9998
2 22803  70.9900 149.4044 0019191 305.4017  54.5314 14.17219452670246
ARIANE 40 R/B           
1 22830U 93061H   26003.19669461  .00000581  00000+0  22876-3 0  9998
2 22830  98.5044  73.3332 0011746 116.5361 243.7029 14.32818948684722
COSMOS 2278             
1 23087U 94023A   26003.24851273  .00000476  00000+0  27314-3 0  9997
2 23087  71.0543 312.0101 0007388 140.4467 219.7196 14.14354965635553
SL-16 R/B               
1 23088U 94023B   26003.25401284  .00000204  00000+0  12981-3 0  9995
2 23088  70.9978 208.3060 0002554 354.9702   5.1395 14.14999308636835
SL-16 R/B               
1 23343U 94074B   26003.04334630  .00000986  00000+0  13901-3 0  9992
2 23343  97.7181  36.4990 0007984  77.8723 311.3636 14.79319503677547
SL-16 R/B               
1 23405U 94077B   26002.76649159 -.00000132  00000+0 -42739-4 0  9994
2 23405  70.9825 131.1796 0005020 267.2227  92.8322 14.15550121606902
ARIANE 40+ R/B          
1 23561U 95021B   26003.21249289  .00000654  00000+0  22293-3 0  9997
2 23561  98.4622  75.5396 0006365 346.7919  78.2568 14.39715716609829
SL-16 R/B               
1 23705U 95058B   26003.26492098  .00000333  00000+0  19463-3 0  9999
2 23705  71.0224 317.6120 0014229 226.3173 133.6772 14.15484256558598
SL-16 R/B               
1 24298U 96051B   26003.30182887  .00000054  00000+0  56000-4 0  9997
2 24298  70.7599 313.6430 0019390 234.9166 125.0136 14.12399283512410
ORBVIEW 2 (SEASTAR)     
1 24883U 97037A   26003.31487059  .00000638  00000+0  23820-3 0  9993
2 24883  98.8471 165.9345 0001372 239.7148 120.3901 14.35437081499097
