CCSDS_OMM_VERS = 2.0
CREATION_DATE  = 
ORIGINATOR     = 

OBJECT_NAME    = SL-16 R/B
OBJECT_ID      = 1993-016B
CENTER_NAME    = EARTH
REF_FRAME      = TEME
TIME_SYSTEM    = UTC
MEAN_ELEMENT_THEORY = SGP/SGP4

EPOCH          = 2026-01-03T06:17:09.891456
MEAN_MOTION    = 14.15296400
ECCENTRICITY   = .00080933
INCLINATION    = 71.0090
RA_OF_ASC_NODE = 352.5996
ARG_OF_PERICENTER = 54.1127
MEAN_ANOMALY   = 306.0746

EPHEMERIS_TYPE = 0
CLASSIFICATION_TYPE = U
NORAD_CAT_ID   = 22566
ELEMENT_SET_NO = 999
REV_AT_EPOCH   = 69291
BSTAR          = .21115193E-4
MEAN_MOTION_DOT = -.6E-7
MEAN_MOTION_DDOT = 0

CCSDS_OMM_VERS = 2.0
CREATION_DATE  = 
ORIGINATOR     = 

OBJECT_NAME    = COSMOS 2242
OBJECT_ID      = 1993-024A
CENTER_NAME    = EARTH
REF_FRAME      = TEME
TIME_SYSTEM    = UTC
MEAN_ELEMENT_THEORY = SGP/SGP4

EPOCH          = 2026-01-03T07:18:59.105664
MEAN_MOTION    = 14.96220299
ECCENTRICITY   = .00168492
INCLINATION    = 82.5199
RA_OF_ASC_NODE = 329.2308
ARG_OF_PERICENTER = 159.2901
MEAN_ANOMALY   = 200.9008

EPHEMERIS_TYPE = 0
CLASSIFICATION_TYPE = U
NORAD_CAT_ID   = 22626
ELEMENT_SET_NO = 999
REV_AT_EPOCH   = 77061
BSTAR          = .41027693E-3
MEAN_MOTION_DOT = .4664E-4
MEAN_MOTION_DDOT = 0

CCSDS_OMM_VERS = 2.0
CREATION_DATE  = 
ORIGINATOR     = 

OBJECT_NAME    = SL-16 R/B
OBJECT_ID      = 1993-059B
CENTER_NAME    = EARTH
REF_FRAME      = TEME
TIME_SYSTEM    = UTC
MEAN_ELEMENT_THEORY = SGP/SGP4

EPOCH          = 2026-01-03T02:50:33.400896
MEAN_MOTION    = 14.17219452
ECCENTRICITY   = .00191918
INCLINATION    = 70.9900
RA_OF_ASC_NODE = 149.4044
ARG_OF_PERICENTER = 305.4017
MEAN_ANOMALY   = 54.5314

EPHEMERIS_TYPE = 0
CLASSIFICATION_TYPE = U
NORAD_CAT_ID   = 22803
ELEMENT_SET_NO = 999
REV_AT_EPOCH   = 67024
BSTAR          = -.14151157E-4
MEAN_MOTION_DOT = -.77E-6
MEAN_MOTION_DDOT = 0

CCSDS_OMM_VERS = 2.0
CREATION_DATE  = 
ORIGINATOR     = 

OBJECT_NAME    = ARIANE 40 R/B
OBJECT_ID      = 1993-061H
CENTER_NAME    = EARTH
REF_FRAME      = TEME
TIME_SYSTEM    = UTC
MEAN_ELEMENT_THEORY = SGP/SGP4

EPOCH          = 2026-01-03T04:43:14.414304
MEAN_MOTION    = 14.32818948
ECCENTRICITY   = .0011746
INCLINATION    = 98.5044
RA_OF_ASC_NODE = 73.3332
ARG_OF_PERICENTER = 116.5361
MEAN_ANOMALY   = 243.7029

EPHEMERIS_TYPE = 0
CLASSIFICATION_TYPE = U
NORAD_CAT_ID   = 22830
ELEMENT_SET_NO = 999
REV_AT_EPOCH   = 68472
BSTAR          = .22875752E-3
MEAN_MOTION_DOT = .581E-5
MEAN_MOTION_DDOT = 0

CCSDS_OMM_VERS = 2.0
CREATION_DATE  = 
ORIGINATOR     = 

OBJECT_NAME    = COSMOS 2278
OBJECT_ID      = 1994-023A
CENTER_NAME    = EARTH
REF_FRAME      = TEME
TIME_SYSTEM    = UTC
MEAN_ELEMENT_THEORY = SGP/SGP4

EPOCH          = 2026-01-03T05:57:51.499872
MEAN_MOTION    = 14.14354965
ECCENTRICITY   = .00073886
INCLINATION    = 71.0543
RA_OF_ASC_NODE = 312.0101
ARG_OF_PERICENTER = 140.4467
MEAN_ANOMALY   = 219.7196

EPHEMERIS_TYPE = 0
CLASSIFICATION_TYPE = U
NORAD_CAT_ID   = 23087
ELEMENT_SET_NO = 999
REV_AT_EPOCH   = 63555
BSTAR          = .27314437E-3
MEAN_MOTION_DOT = .476E-5
MEAN_MOTION_DDOT = 0

CCSDS_OMM_VERS = 2.0
CREATION_DATE  = 
ORIGINATOR     = 

OBJECT_NAME    = SL-16 R/B
OBJECT_ID      = 1994-023B
CENTER_NAME    = EARTH
REF_FRAME      = TEME
TIME_SYSTEM    = UTC
MEAN_ELEMENT_THEORY = SGP/SGP4

EPOCH          = 2026-01-03T06:05:46.709376
MEAN_MOTION    = 14.14999308
ECCENTRICITY   = .00025543
INCLINATION    = 70.9978
RA_OF_ASC_NODE = 208.3060
ARG_OF_PERICENTER = 354.9702
MEAN_ANOMALY   = 5.1395

EPHEMERIS_TYPE = 0
CLASSIFICATION_TYPE = U
NORAD_CAT_ID   = 23088
ELEMENT_SET_NO = 999
REV_AT_EPOCH   = 63683
BSTAR          = .12981379E-3
MEAN_MOTION_DOT = .204E-5
MEAN_MOTION_DDOT = 0

CCSDS_OMM_VERS = 2.0
CREATION_DATE  = 
ORIGINATOR     = 

OBJECT_NAME    = SL-16 R/B
OBJECT_ID      = 1994-074B
CENTER_NAME    = EARTH
REF_FRAME      = TEME
TIME_SYSTEM    = UTC
MEAN_ELEMENT_THEORY = SGP/SGP4

EPOCH          = 2026-01-03T01:02:25.120320
MEAN_MOTION    = 14.79319503
ECCENTRICITY   = .00079842
INCLINATION    = 97.7181
RA_OF_ASC_NODE = 36.4990
ARG_OF_PERICENTER = 77.8723
MEAN_ANOMALY   = 311.3636

EPHEMERIS_TYPE = 0
CLASSIFICATION_TYPE = U
NORAD_CAT_ID   = 23343
ELEMENT_SET_NO = 999
REV_AT_EPOCH   = 67754
BSTAR          = .13900503E-3
MEAN_MOTION_DOT = .986E-5
MEAN_MOTION_DDOT = 0

CCSDS_OMM_VERS = 2.0
CREATION_DATE  = 
ORIGINATOR     = 

OBJECT_NAME    = SL-16 R/B
OBJECT_ID      = 1994-077B
CENTER_NAME    = EARTH
REF_FRAME      = TEME
TIME_SYSTEM    = UTC
MEAN_ELEMENT_THEORY = SGP/SGP4

EPOCH          = 2026-01-02T18:23:44.873376
MEAN_MOTION    = 14.15550121
ECCENTRICITY   = .00050201
INCLINATION    = 70.9825
RA_OF_ASC_NODE = 131.1796
ARG_OF_PERICENTER = 267.2227
MEAN_ANOMALY   = 92.8322

EPHEMERIS_TYPE = 0
CLASSIFICATION_TYPE = U
NORAD_CAT_ID   = 23405
ELEMENT_SET_NO = 999
REV_AT_EPOCH   = 60690
BSTAR          = -.42738569E-4
MEAN_MOTION_DOT = -.132E-5
MEAN_MOTION_DDOT = 0

CCSDS_OMM_VERS = 2.0
CREATION_DATE  = 
ORIGINATOR     = 

OBJECT_NAME    = ARIANE 40+ R/B
OBJECT_ID      = 1995-021B
CENTER_NAME    = EARTH
REF_FRAME      = TEME
TIME_SYSTEM    = UTC
MEAN_ELEMENT_THEORY = SGP/SGP4

EPOCH          = 2026-01-03T05:05:59.385696
MEAN_MOTION    = 14.39715716
ECCENTRICITY   = .00063651
INCLINATION    = 98.4622
RA_OF_ASC_NODE = 75.5396
ARG_OF_PERICENTER = 346.7919
MEAN_ANOMALY   = 78.2568

EPHEMERIS_TYPE = 0
CLASSIFICATION_TYPE = U
NORAD_CAT_ID   = 23561
ELEMENT_SET_NO = 999
REV_AT_EPOCH   = 60982
BSTAR          = .22293153E-3
MEAN_MOTION_DOT = .654E-5
MEAN_MOTION_DDOT = 0

CCSDS_OMM_VERS = 2.0
CREATION_DATE  = 
ORIGINATOR     = 

OBJECT_NAME    = SL-16 R/B
OBJECT_ID      = 1995-058B
CENTER_NAME    = EARTH
REF_FRAME      = TEME
TIME_SYSTEM    = UTC
MEAN_ELEMENT_THEORY = SGP/SGP4

EPOCH          = 2026-01-03T06:21:29.172672
MEAN_MOTION    = 14.15484256
ECCENTRICITY   = .00142296
INCLINATION    = 71.0224
RA_OF_ASC_NODE = 317.6120
ARG_OF_PERICENTER = 226.3173
MEAN_ANOMALY   = 133.6772

EPHEMERIS_TYPE = 0
CLASSIFICATION_TYPE = U
NORAD_CAT_ID   = 23705
ELEMENT_SET_NO = 999
REV_AT_EPOCH   = 55859
BSTAR          = .19462852E-3
MEAN_MOTION_DOT = .333E-5
MEAN_MOTION_DDOT = 0

CCSDS_OMM_VERS = 2.0
CREATION_DATE  = 
ORIGINATOR     = 

OBJECT_NAME    = SL-16 R/B
OBJECT_ID      = 1996-051B
CENTER_NAME    = EARTH
REF_FRAME      = TEME
TIME_SYSTEM    = UTC
MEAN_ELEMENT_THEORY = SGP/SGP4

EPOCH          = 2026-01-03T07:14:38.014368
MEAN_MOTION    = 14.12399283
ECCENTRICITY   = .001939
INCLINATION    = 70.7599
RA_OF_ASC_NODE = 313.6430
ARG_OF_PERICENTER = 234.9166
MEAN_ANOMALY   = 125.0136

EPHEMERIS_TYPE = 0
CLASSIFICATION_TYPE = U
NORAD_CAT_ID   = 24298
ELEMENT_SET_NO = 999
REV_AT_EPOCH   = 51241
BSTAR          = .56000325E-4
MEAN_MOTION_DOT = .54E-6
MEAN_MOTION_DDOT = 0

CCSDS_OMM_VERS = 2.0
CREATION_DATE  = 
ORIGINATOR     = 

OBJECT_NAME    = ORBVIEW 2 (SEASTAR)
OBJECT_ID      = 1997-037A
CENTER_NAME    = EARTH
REF_FRAME      = TEME
TIME_SYSTEM    = UTC
MEAN_ELEMENT_THEORY = SGP/SGP4

EPOCH          = 2026-01-03T07:33:24.818976
MEAN_MOTION    = 14.35437081
ECCENTRICITY   = .00013726
INCLINATION    = 98.8471
RA_OF_ASC_NODE = 165.9345
ARG_OF_PERICENTER = 239.7148
MEAN_ANOMALY   = 120.3901

EPHEMERIS_TYPE = 0
CLASSIFICATION_TYPE = U
NORAD_CAT_ID   = 24883
ELEMENT_SET_NO = 999
REV_AT_EPOCH   = 49909
BSTAR          = .23820111E-3
MEAN_MOTION_DOT = .638E-5
MEAN_MOTION_DDOT = 0

